HULIANWANG DIGUI-107    
1 66917U 25285C   25362.86187631  .00000225  00000+0  24849-3 0  9997
2 66917  50.0033  51.6035 0002985 338.7100  21.3679 14.01177214  3175
HULIANWANG DIGUI-108    
1 66918U 25285D   25362.86108435 -.00000065  00000+0  56191-4 0  9992
2 66918  50.0057  51.6046 0002307 332.7561  27.3221 14.01328788  3170
HULIANWANG DIGUI-109    
1 66919U 25285E   25362.85884447 -.00000052  00000+0  64975-4 0  9991
2 66919  50.0080  51.5991 0003782 344.9665  15.1125 14.01537391  3173
HULIANWANG DIGUI-110    
1 66920U 25285F   25362.85792351  .00000048  00000+0  13057-3 0  9993
2 66920  50.0112  51.6025 0001447 338.8871  21.1973 14.01659551  3178
HULIANWANG DIGUI-111    
1 66921U 25285G   25362.85690292 -.00000120  00000+0  20362-4 0  9995
2 66921  50.0127  51.6020 0002137 344.4091  15.6747 14.01792723  3170
HULIANWANG DIGUI-112    
1 66922U 25285H   25362.49909532  .00000139  00000+0  18925-3 0  9996
2 66922  50.0060  53.0222 0002677 352.3938   7.6925 14.01982157  3120
HULIANWANG DIGUI-113    
1 66923U 25285J   25362.85399248 -.00000148  00000+0  15469-5 0  9997
2 66923  50.0100  51.5787 0000794 338.9435  21.1436 14.02082609  3172
CZ-8A R/B               
1 66924U 25285K   25362.44891156  .00000110  00000+0  97189-4 0  9994
2 66924  50.0084  49.2854 0119176 162.1193 198.3969 14.30508521  3171
STARLINK-35945          
1 66925U 25286A   25362.83334491 -.00040175  00000+0 -71798-3 0  9997
2 66925  53.1592 330.7307 0001146 101.3627 265.8159 15.49309513  4572
STARLINK-35942          
1 66926U 25286B   25362.83334491 -.00040796  00000+0 -72903-3 0  9996
2 66926  53.1593 330.7995 0001586  99.6059 233.7638 15.49317309  4571
STARLINK-35943          
1 66927U 25286C   25362.83334491 -.00011409  00000+0 -19742-3 0  9998
2 66927  53.1593 330.7949 0001397  93.5335 241.7546 15.49300749  4578
STARLINK-35944          
1 66928U 25286D   25362.83334491 -.00008407  00000+0 -14328-3 0  9998
2 66928  53.1594 330.8025 0001713  92.7323 238.7193 15.49301094  4574
