CCSDS_OMM_VERS = 2.0
CREATION_DATE  = 
ORIGINATOR     = 

OBJECT_NAME    = HULIANWANG DIGUI-107
OBJECT_ID      = 2025-285C
CENTER_NAME    = EARTH
REF_FRAME      = TEME
TIME_SYSTEM    = UTC
MEAN_ELEMENT_THEORY = SGP/SGP4

EPOCH          = 2025-12-28T20:41:06.113184
MEAN_MOTION    = 14.01177214
ECCENTRICITY   = .0002985
INCLINATION    = 50.0033
RA_OF_ASC_NODE = 51.6035
ARG_OF_PERICENTER = 338.7100
MEAN_ANOMALY   = 21.3679

EPHEMERIS_TYPE = 0
CLASSIFICATION_TYPE = U
NORAD_CAT_ID   = 66917
ELEMENT_SET_NO = 999
REV_AT_EPOCH   = 317
BSTAR          = .24849E-3
MEAN_MOTION_DOT = .225E-5
MEAN_MOTION_DDOT = 0

CCSDS_OMM_VERS = 2.0
CREATION_DATE  = 
ORIGINATOR     = 

OBJECT_NAME    = HULIANWANG DIGUI-108
OBJECT_ID      = 2025-285D
CENTER_NAME    = EARTH
REF_FRAME      = TEME
TIME_SYSTEM    = UTC
MEAN_ELEMENT_THEORY = SGP/SGP4

EPOCH          = 2025-12-28T20:39:57.687840
MEAN_MOTION    = 14.01328788
ECCENTRICITY   = .0002307
INCLINATION    = 50.0057
RA_OF_ASC_NODE = 51.6046
ARG_OF_PERICENTER = 332.7561
MEAN_ANOMALY   = 27.3221

EPHEMERIS_TYPE = 0
CLASSIFICATION_TYPE = U
NORAD_CAT_ID   = 66918
ELEMENT_SET_NO = 999
REV_AT_EPOCH   = 317
BSTAR          = .56191E-4
MEAN_MOTION_DOT = -.65E-6
MEAN_MOTION_DDOT = 0

CCSDS_OMM_VERS = 2.0
CREATION_DATE  = 
ORIGINATOR     = 

OBJECT_NAME    = HULIANWANG DIGUI-109
OBJECT_ID      = 2025-285E
CENTER_NAME    = EARTH
REF_FRAME      = TEME
TIME_SYSTEM    = UTC
MEAN_ELEMENT_THEORY = SGP/SGP4

EPOCH          = 2025-12-28T20:36:44.162208
MEAN_MOTION    = 14.01537391
ECCENTRICITY   = .0003782
INCLINATION    = 50.0080
RA_OF_ASC_NODE = 51.5991
ARG_OF_PERICENTER = 344.9665
MEAN_ANOMALY   = 15.1125

EPHEMERIS_TYPE = 0
CLASSIFICATION_TYPE = U
NORAD_CAT_ID   = 66919
ELEMENT_SET_NO = 999
REV_AT_EPOCH   = 317
BSTAR          = .64975E-4
MEAN_MOTION_DOT = -.52E-6
MEAN_MOTION_DDOT = 0

CCSDS_OMM_VERS = 2.0
CREATION_DATE  = 
ORIGINATOR     = 

OBJECT_NAME    = HULIANWANG DIGUI-110
OBJECT_ID      = 2025-285F
CENTER_NAME    = EARTH
REF_FRAME      = TEME
TIME_SYSTEM    = UTC
MEAN_ELEMENT_THEORY = SGP/SGP4

EPOCH          = 2025-12-28T20:35:24.591264
MEAN_MOTION    = 14.01659551
ECCENTRICITY   = .0001447
INCLINATION    = 50.0112
RA_OF_ASC_NODE = 51.6025
ARG_OF_PERICENTER = 338.8871
MEAN_ANOMALY   = 21.1973

EPHEMERIS_TYPE = 0
CLASSIFICATION_TYPE = U
NORAD_CAT_ID   = 66920
ELEMENT_SET_NO = 999
REV_AT_EPOCH   = 317
BSTAR          = .13057E-3
MEAN_MOTION_DOT = .48E-6
MEAN_MOTION_DDOT = 0

CCSDS_OMM_VERS = 2.0
CREATION_DATE  = 
ORIGINATOR     = 

OBJECT_NAME    = HULIANWANG DIGUI-111
OBJECT_ID      = 2025-285G
CENTER_NAME    = EARTH
REF_FRAME      = TEME
TIME_SYSTEM    = UTC
MEAN_ELEMENT_THEORY = SGP/SGP4

EPOCH          = 2025-12-28T20:33:56.412288
MEAN_MOTION    = 14.01792723
ECCENTRICITY   = .0002137
INCLINATION    = 50.0127
RA_OF_ASC_NODE = 51.6020
ARG_OF_PERICENTER = 344.4091
MEAN_ANOMALY   = 15.6747

EPHEMERIS_TYPE = 0
CLASSIFICATION_TYPE = U
NORAD_CAT_ID   = 66921
ELEMENT_SET_NO = 999
REV_AT_EPOCH   = 317
BSTAR          = .20362E-4
MEAN_MOTION_DOT = -.12E-5
MEAN_MOTION_DDOT = 0

CCSDS_OMM_VERS = 2.0
CREATION_DATE  = 
ORIGINATOR     = 

OBJECT_NAME    = HULIANWANG DIGUI-112
OBJECT_ID      = 2025-285H
CENTER_NAME    = EARTH
REF_FRAME      = TEME
TIME_SYSTEM    = UTC
MEAN_ELEMENT_THEORY = SGP/SGP4

EPOCH          = 2025-12-28T11:58:41.835648
MEAN_MOTION    = 14.01982157
ECCENTRICITY   = .00026779
INCLINATION    = 50.0060
RA_OF_ASC_NODE = 53.0222
ARG_OF_PERICENTER = 352.3938
MEAN_ANOMALY   = 7.6925

EPHEMERIS_TYPE = 0
CLASSIFICATION_TYPE = U
NORAD_CAT_ID   = 66922
ELEMENT_SET_NO = 999
REV_AT_EPOCH   = 312
BSTAR          = .18925125E-3
MEAN_MOTION_DOT = .139E-5
MEAN_MOTION_DDOT = 0

CCSDS_OMM_VERS = 2.0
CREATION_DATE  = 
ORIGINATOR     = 

OBJECT_NAME    = HULIANWANG DIGUI-113
OBJECT_ID      = 2025-285J
CENTER_NAME    = EARTH
REF_FRAME      = TEME
TIME_SYSTEM    = UTC
MEAN_ELEMENT_THEORY = SGP/SGP4

EPOCH          = 2025-12-28T20:29:44.950272
MEAN_MOTION    = 14.02082609
ECCENTRICITY   = .0000794
INCLINATION    = 50.0100
RA_OF_ASC_NODE = 51.5787
ARG_OF_PERICENTER = 338.9435
MEAN_ANOMALY   = 21.1436

EPHEMERIS_TYPE = 0
CLASSIFICATION_TYPE = U
NORAD_CAT_ID   = 66923
ELEMENT_SET_NO = 999
REV_AT_EPOCH   = 317
BSTAR          = .15469E-5
MEAN_MOTION_DOT = -.148E-5
MEAN_MOTION_DDOT = 0

CCSDS_OMM_VERS = 2.0
CREATION_DATE  = 
ORIGINATOR     = 

OBJECT_NAME    = CZ-8A R/B
OBJECT_ID      = 2025-285K
CENTER_NAME    = EARTH
REF_FRAME      = TEME
TIME_SYSTEM    = UTC
MEAN_ELEMENT_THEORY = SGP/SGP4

EPOCH          = 2025-12-28T10:46:25.958784
MEAN_MOTION    = 14.30508521
ECCENTRICITY   = .01191764
INCLINATION    = 50.0084
RA_OF_ASC_NODE = 49.2854
ARG_OF_PERICENTER = 162.1193
MEAN_ANOMALY   = 198.3969

EPHEMERIS_TYPE = 0
CLASSIFICATION_TYPE = U
NORAD_CAT_ID   = 66924
ELEMENT_SET_NO = 999
REV_AT_EPOCH   = 317
BSTAR          = .97188511E-4
MEAN_MOTION_DOT = .11E-5
MEAN_MOTION_DDOT = 0

CCSDS_OMM_VERS = 2.0
CREATION_DATE  = 
ORIGINATOR     = 

OBJECT_NAME    = STARLINK-35945
OBJECT_ID      = 2025-286A
CENTER_NAME    = EARTH
REF_FRAME      = TEME
TIME_SYSTEM    = UTC
MEAN_ELEMENT_THEORY = SGP/SGP4

EPOCH          = 2025-12-28T20:00:01.000224
MEAN_MOTION    = 15.49309513
ECCENTRICITY   = .0001146
INCLINATION    = 53.1592
RA_OF_ASC_NODE = 330.7307
ARG_OF_PERICENTER = 101.3627
MEAN_ANOMALY   = 265.8159

EPHEMERIS_TYPE = 0
CLASSIFICATION_TYPE = U
NORAD_CAT_ID   = 66925
ELEMENT_SET_NO = 999
REV_AT_EPOCH   = 457
BSTAR          = -.71798E-3
MEAN_MOTION_DOT = -.40175E-3
MEAN_MOTION_DDOT = 0

CCSDS_OMM_VERS = 2.0
CREATION_DATE  = 
ORIGINATOR     = 

OBJECT_NAME    = STARLINK-35942
OBJECT_ID      = 2025-286B
CENTER_NAME    = EARTH
REF_FRAME      = TEME
TIME_SYSTEM    = UTC
MEAN_ELEMENT_THEORY = SGP/SGP4

EPOCH          = 2025-12-28T20:00:01.000224
MEAN_MOTION    = 15.49317309
ECCENTRICITY   = .0001586
INCLINATION    = 53.1593
RA_OF_ASC_NODE = 330.7995
ARG_OF_PERICENTER = 99.6059
MEAN_ANOMALY   = 233.7638

EPHEMERIS_TYPE = 0
CLASSIFICATION_TYPE = U
NORAD_CAT_ID   = 66926
ELEMENT_SET_NO = 999
REV_AT_EPOCH   = 457
BSTAR          = -.72903E-3
MEAN_MOTION_DOT = -.40796E-3
MEAN_MOTION_DDOT = 0

CCSDS_OMM_VERS = 2.0
CREATION_DATE  = 
ORIGINATOR     = 

OBJECT_NAME    = STARLINK-35943
OBJECT_ID      = 2025-286C
CENTER_NAME    = EARTH
REF_FRAME      = TEME
TIME_SYSTEM    = UTC
MEAN_ELEMENT_THEORY = SGP/SGP4

EPOCH          = 2025-12-28T20:00:01.000224
MEAN_MOTION    = 15.49300749
ECCENTRICITY   = .0001397
INCLINATION    = 53.1593
RA_OF_ASC_NODE = 330.7949
ARG_OF_PERICENTER = 93.5335
MEAN_ANOMALY   = 241.7546

EPHEMERIS_TYPE = 0
CLASSIFICATION_TYPE = U
NORAD_CAT_ID   = 66927
ELEMENT_SET_NO = 999
REV_AT_EPOCH   = 457
BSTAR          = -.19742E-3
MEAN_MOTION_DOT = -.11409E-3
MEAN_MOTION_DDOT = 0

CCSDS_OMM_VERS = 2.0
CREATION_DATE  = 
ORIGINATOR     = 

OBJECT_NAME    = STARLINK-35944
OBJECT_ID      = 2025-286D
CENTER_NAME    = EARTH
REF_FRAME      = TEME
TIME_SYSTEM    = UTC
MEAN_ELEMENT_THEORY = SGP/SGP4

EPOCH          = 2025-12-28T20:00:01.000224
MEAN_MOTION    = 15.49301094
ECCENTRICITY   = .0001713
INCLINATION    = 53.1594
RA_OF_ASC_NODE = 330.8025
ARG_OF_PERICENTER = 92.7323
MEAN_ANOMALY   = 238.7193

EPHEMERIS_TYPE = 0
CLASSIFICATION_TYPE = U
NORAD_CAT_ID   = 66928
ELEMENT_SET_NO = 999
REV_AT_EPOCH   = 457
BSTAR          = -.14328E-3
MEAN_MOTION_DOT = -.8407E-4
MEAN_MOTION_DDOT = 0

